{
    "CCSDS_OMM_VERS": "3.0",
    "COMMENT": "GENERATED VIA SPACE-TRACK.ORG API",
    "CREATION_DATE": "2025-11-24T07:36:20",
    "ORIGINATOR": "18 SPCS",
    "OBJECT_NAME": "COSMOS 2564 (GLONASS)",
    "OBJECT_ID": "2022-161A",
    "CENTER_NAME": "EARTH",
    "REF_FRAME": "TEME",
    "TIME_SYSTEM": "UTC",
    "MEAN_ELEMENT_THEORY": "SGP4",
    "EPOCH": "2025-11-23T16:55:47.405856",
    "MEAN_MOTION": "2.13102079",
    "ECCENTRICITY": "0.00088500",
    "INCLINATION": "64.7373",
    "RA_OF_ASC_NODE": "199.5313",
    "ARG_OF_PERICENTER": "207.8394",
    "MEAN_ANOMALY": "152.2092",
    "EPHEMERIS_TYPE": "0",
    "CLASSIFICATION_TYPE": "U",
    "NORAD_CAT_ID": "54377",
    "ELEMENT_SET_NO": "999",
    "REV_AT_EPOCH": "2325",
    "BSTAR": "0.00000000000000",
    "MEAN_MOTION_DOT": "0.00000061",
    "MEAN_MOTION_DDOT": "0.0000000000000",
    "SEMIMAJOR_AXIS": "25508.018",
    "PERIOD": "675.732",
    "APOAPSIS": "19152.458",
    "PERIAPSIS": "19107.309",
    "OBJECT_TYPE": "PAYLOAD",
    "RCS_SIZE": "LARGE",
    "COUNTRY_CODE": "CIS",
    "LAUNCH_DATE": "2022-11-28",
    "SITE": "PKMTR",
    "DECAY_DATE": null,
    "FILE": "4897186",
    "GP_ID": "303372001",
    "TLE_LINE0": "0 COSMOS 2564 (GLONASS)",
    "TLE_LINE1": "1 54377U 22161A   25327.70540979  .00000061  00000-0  00000+0 0  9994",
    "TLE_LINE2": "2 54377  64.7373 199.5313 0008850 207.8394 152.2092  2.13102079 23251"
}